[{"OBJECT_NAME":"NANOSATC-BR1","OBJECT_ID":"2014-033Q","EPOCH":"2026-03-09T23:35:03.168384","MEAN_MOTION":15.28136801,"ECCENTRICITY":0.00046435,"INCLINATION":98.0845,"RA_OF_ASC_NODE":92.7804,"ARG_OF_PERICENTER":147.6715,"MEAN_ANOMALY":212.4808,"EPHEMERIS_TYPE":0,"CLASSIFICATION_TYPE":"U","NORAD_CAT_ID":40024,"ELEMENT_SET_NO":999,"REV_AT_EPOCH":63881,"BSTAR":0.00074295057,"MEAN_MOTION_DOT":0.00020336,"MEAN_MOTION_DDOT":0},{"OBJECT_NAME":"STARLINK-31404","OBJECT_ID":"2024-073L","EPOCH":"2026-03-09T21:33:27.327744","MEAN_MOTION":15.27578812,"ECCENTRICITY":0.00016492,"INCLINATION":43.0007,"RA_OF_ASC_NODE":317.1748,"ARG_OF_PERICENTER":254.8656,"MEAN_ANOMALY":105.2014,"EPHEMERIS_TYPE":0,"CLASSIFICATION_TYPE":"U","NORAD_CAT_ID":59521,"ELEMENT_SET_NO":999,"REV_AT_EPOCH":10620,"BSTAR":0.00036220138,"MEAN_MOTION_DOT":9.718e-5,"MEAN_MOTION_DDOT":0}]
